COSMOS 2251 DEB         
1 35062U 93036AHR 17345.93246794  .00000514  00000-0  28824-3 0  9998
2 35062  74.0993 189.2204 0154838 195.5928 231.6413 14.07132470442687
